{
  "type": "FeatureCollection",
  "features": [
    {
      "type": "Feature",
      "properties": {
        "norad_id": 40894,
        "name": "GAOFEN-9 01",
        "group": "resource",
        "lat": 50.57436143449439,
        "lon": -142.29246094081878,
        "alt_km": 621.4884492119845,
        "timestamp": "2025-12-15T10:55:20.786878+00:00",
        "meta_object_name": "GAOFEN-9 01",
        "meta_object_id": "2015-047A",
        "meta_epoch": "2025-12-14T23:00:21.952224",
        "meta_mean_motion": 14.82427328,
        "meta_eccentricity": 0.00282223,
        "meta_inclination": 97.6541,
        "meta_ra_of_asc_node": 27.8183,
        "meta_arg_of_pericenter": 27.2061,
        "meta_mean_anomaly": 333.0625,
        "meta_ephemeris_type": 0,
        "meta_classification_type": "U",
        "meta_norad_cat_id": 40894,
        "meta_element_set_no": 999,
        "meta_rev_at_epoch": 55289,
        "meta_bstar": 0.0001586808,
        "meta_mean_motion_dot": 1.229e-05,
        "meta_mean_motion_ddot": 0,
        "tle_line1": "1 40894U 15047A   25348.95858741  .00001229  00000+0  15868-3 0  9995",
        "tle_line2": "2 40894  97.6541  27.8183 0028222  27.2061 333.0625 14.82427328552894"
      },
      "geometry": {
        "type": "Point",
        "coordinates": [
          -142.29246094081878,
          50.57436143449439
        ]
      }
    },
    {
      "type": "Feature",
      "properties": {
        "norad_id": 41026,
        "name": "YAOGAN-28",
        "group": "resource",
        "lat": -30.679989925069762,
        "lon": 131.5200746584089,
        "alt_km": 505.9188071855224,
        "timestamp": "2025-12-15T10:55:20.786888+00:00",
        "meta_object_name": "YAOGAN-28",
        "meta_object_id": "2015-064A",
        "meta_epoch": "2025-12-14T22:27:17.826336",
        "meta_mean_motion": 15.24396218,
        "meta_eccentricity": 0.00124643,
        "meta_inclination": 97.2801,
        "meta_ra_of_asc_node": 126.6656,
        "meta_arg_of_pericenter": 118.926,
        "meta_mean_anomaly": 241.323,
        "meta_ephemeris_type": 0,
        "meta_classification_type": "U",
        "meta_norad_cat_id": 41026,
        "meta_element_set_no": 999,
        "meta_rev_at_epoch": 56258,
        "meta_bstar": 0.00028429651,
        "meta_mean_motion_dot": 6.913e-05,
        "meta_mean_motion_ddot": 0,
        "tle_line1": "1 41026U 15064A   25348.93562299  .00006913  00000+0  28430-3 0  9994",
        "tle_line2": "2 41026  97.2801 126.6656 0012464 118.9260 241.3230 15.24396218562580"
      },
      "geometry": {
        "type": "Point",
        "coordinates": [
          131.5200746584089,
          -30.679989925069762
        ]
      }
    },
    {
      "type": "Feature",
      "properties": {
        "norad_id": 41038,
        "name": "YAOGAN-29",
        "group": "resource",
        "lat": 20.48782390806432,
        "lon": 9.615269096429369,
        "alt_km": 620.310039944804,
        "timestamp": "2025-12-15T10:55:20.786898+00:00",
        "meta_object_name": "YAOGAN-29",
        "meta_object_id": "2015-069A",
        "meta_epoch": "2025-12-14T23:29:35.659680",
        "meta_mean_motion": 14.82888272,
        "meta_eccentricity": 1.053e-05,
        "meta_inclination": 98.0225,
        "meta_ra_of_asc_node": 12.1582,
        "meta_arg_of_pericenter": 209.4446,
        "meta_mean_anomaly": 150.6761,
        "meta_ephemeris_type": 0,
        "meta_classification_type": "U",
        "meta_norad_cat_id": 41038,
        "meta_element_set_no": 999,
        "meta_rev_at_epoch": 54332,
        "meta_bstar": 0.00014666878,
        "meta_mean_motion_dot": 1.134e-05,
        "meta_mean_motion_ddot": 0,
        "tle_line1": "1 41038U 15069A   25348.97888495  .00001134  00000+0  14667-3 0  9992",
        "tle_line2": "2 41038  98.0225  12.1582 0000105 209.4446 150.6761 14.82888272543321"
      },
      "geometry": {
        "type": "Point",
        "coordinates": [
          9.615269096429369,
          20.48782390806432
        ]
      }
    },
    {
      "type": "Feature",
      "properties": {
        "norad_id": 41167,
        "name": "KENT RIDGE 1",
        "group": "resource",
        "lat": -7.550149539277788,
        "lon": 161.27847397932226,
        "alt_km": 504.48180921941275,
        "timestamp": "2025-12-15T10:55:20.786908+00:00",
        "meta_object_name": "KENT RIDGE 1",
        "meta_object_id": "2015-077B",
        "meta_epoch": "2025-12-14T22:28:15.080160",
        "meta_mean_motion": 15.21656092,
        "meta_eccentricity": 0.00084775,
        "meta_inclination": 14.9785,
        "meta_ra_of_asc_node": 194.8424,
        "meta_arg_of_pericenter": 161.9763,
        "meta_mean_anomaly": 198.086,
        "meta_ephemeris_type": 0,
        "meta_classification_type": "U",
        "meta_norad_cat_id": 41167,
        "meta_element_set_no": 999,
        "meta_rev_at_epoch": 55297,
        "meta_bstar": 0.00014299227,
        "meta_mean_motion_dot": 4.084e-05,
        "meta_mean_motion_ddot": 0,
        "tle_line1": "1 41167U 15077B   25348.93628565  .00004084  00000+0  14299-3 0  9998",
        "tle_line2": "2 41167  14.9785 194.8424 0008477 161.9763 198.0860 15.21656092552973"
      },
      "geometry": {
        "type": "Point",
        "coordinates": [
          161.27847397932226,
          -7.550149539277788
        ]
      }
    },
    {
      "type": "Feature",
      "properties": {
        "norad_id": 41194,
        "name": "GAOFEN-4",
        "group": "resource",
        "lat": -0.16807477129315151,
        "lon": -6.140868492792529,
        "alt_km": 35800.75838445803,
        "timestamp": "2025-12-15T10:55:20.786920+00:00",
        "meta_object_name": "GAOFEN-4",
        "meta_object_id": "2015-083A",
        "meta_epoch": "2025-12-14T22:28:54.120000",
        "meta_mean_motion": 1.00268731,
        "meta_eccentricity": 0.00033241,
        "meta_inclination": 0.1759,
        "meta_ra_of_asc_node": 81.4307,
        "meta_arg_of_pericenter": 102.853,
        "meta_mean_anomaly": 342.4629,
        "meta_ephemeris_type": 0,
        "meta_classification_type": "U",
        "meta_norad_cat_id": 41194,
        "meta_element_set_no": 999,
        "meta_rev_at_epoch": 3668,
        "meta_bstar": 0,
        "meta_mean_motion_dot": -3.14e-06,
        "meta_mean_motion_ddot": 0,
        "tle_line1": "1 41194U 15083A   25348.93673750 -.00000314  00000+0  00000+0 0  9995",
        "tle_line2": "2 41194   0.1759  81.4307 0003324 102.8530 342.4629  1.00268731 36688"
      },
      "geometry": {
        "type": "Point",
        "coordinates": [
          -6.140868492792529,
          -0.16807477129315151
        ]
      }
    },
    {
      "type": "Feature",
      "properties": {
        "norad_id": 41240,
        "name": "JASON-3",
        "group": "resource",
        "lat": -54.39031132207835,
        "lon": 113.73583865924334,
        "alt_km": 1312.1459291349756,
        "timestamp": "2025-12-15T10:55:20.786931+00:00",
        "meta_object_name": "JASON-3",
        "meta_object_id": "2016-002A",
        "meta_epoch": "2025-12-14T22:11:57.559200",
        "meta_mean_motion": 12.87626631,
        "meta_eccentricity": 0.00071527,
        "meta_inclination": 66.0392,
        "meta_ra_of_asc_node": 153.2298,
        "meta_arg_of_pericenter": 270.9182,
        "meta_mean_anomaly": 89.1017,
        "meta_ephemeris_type": 0,
        "meta_classification_type": "U",
        "meta_norad_cat_id": 41240,
        "meta_element_set_no": 999,
        "meta_rev_at_epoch": 46352,
        "meta_bstar": 0.00014740542,
        "meta_mean_motion_dot": -2.5e-07,
        "meta_mean_motion_ddot": 0,
        "tle_line1": "1 41240U 16002A   25348.92497175 -.00000025  00000+0  14741-3 0  9993",
        "tle_line2": "2 41240  66.0392 153.2298 0007152 270.9182  89.1017 12.87626631463521"
      },
      "geometry": {
        "type": "Point",
        "coordinates": [
          113.73583865924334,
          -54.39031132207835
        ]
      }
    },
    {
      "type": "Feature",
      "properties": {
        "norad_id": 41335,
        "name": "SENTINEL-3A",
        "group": "resource",
        "lat": -70.12568142069017,
        "lon": -150.41713466304117,
        "alt_km": 810.5749245743491,
        "timestamp": "2025-12-15T10:55:20.786941+00:00",
        "meta_object_name": "SENTINEL-3A",
        "meta_object_id": "2016-011A",
        "meta_epoch": "2025-12-14T21:57:46.979712",
        "meta_mean_motion": 14.26731499,
        "meta_eccentricity": 9.384e-05,
        "meta_inclination": 98.6313,
        "meta_ra_of_asc_node": 53.8967,
        "meta_arg_of_pericenter": 91.3459,
        "meta_mean_anomaly": 268.7829,
        "meta_ephemeris_type": 0,
        "meta_classification_type": "U",
        "meta_norad_cat_id": 41335,
        "meta_element_set_no": 999,
        "meta_rev_at_epoch": 51178,
        "meta_bstar": 7.8539341e-05,
        "meta_mean_motion_dot": 1.46e-06,
        "meta_mean_motion_ddot": 0,
        "tle_line1": "1 41335U 16011A   25348.91512708  .00000146  00000+0  78539-4 0  9996",
        "tle_line2": "2 41335  98.6313  53.8967 0000938  91.3459 268.7829 14.26731499511787"
      },
      "geometry": {
        "type": "Point",
        "coordinates": [
          -150.41713466304117,
          -70.12568142069017
        ]
      }
    }
  ]
}